[{"OBJECT_NAME":"STARLINK-33765","OBJECT_ID":"2025-070P","EPOCH":"2026-03-09T13:10:35.540544","MEAN_MOTION":15.27581282,"ECCENTRICITY":9.3e-5,"INCLINATION":42.9956,"RA_OF_ASC_NODE":260.6993,"ARG_OF_PERICENTER":247.9852,"MEAN_ANOMALY":112.0901,"EPHEMERIS_TYPE":0,"CLASSIFICATION_TYPE":"U","NORAD_CAT_ID":63473,"ELEMENT_SET_NO":999,"REV_AT_EPOCH":5295,"BSTAR":0.00088911705,"MEAN_MOTION_DOT":0.00024286,"MEAN_MOTION_DDOT":0},{"OBJECT_NAME":"GEOSCAN 2 (RS92S2)","OBJECT_ID":"2025-155Q","EPOCH":"2026-03-09T23:01:48.939744","MEAN_MOTION":15.28709337,"ECCENTRICITY":0.00085277,"INCLINATION":97.4463,"RA_OF_ASC_NODE":37.5259,"ARG_OF_PERICENTER":140.9505,"MEAN_ANOMALY":219.2352,"EPHEMERIS_TYPE":0,"CLASSIFICATION_TYPE":"U","NORAD_CAT_ID":64890,"ELEMENT_SET_NO":999,"REV_AT_EPOCH":6561,"BSTAR":0.00051551761,"MEAN_MOTION_DOT":0.00014341,"MEAN_MOTION_DDOT":0}]
